[

{"name":"154555 (2003 HA)","neo_reference_id":"2154555","url":"http://ssd.jpl.nasa.gov/sbdb.cgi?sstr=2154555","api_link":"https://api.nasa.gov/neo/rest/v1/neo/2154555?api_key=CGuQueDNtud5hWODnVj9El7kwfizD8Ql2XqEz3s5","closest_approach":"2016-05-22","potentially_hazardous":false,"absolute_magnitude_h":16.5,"estimated_diameter":2.1554731475,"kilometers_per_second":21.2540652107,"miss_distance":116.7986297607,"orbital_data":{"orbit_id":"126","orbit_determination_date":"2016-05-27 05:47:19","orbit_uncertainty":"0","minimum_orbit_intersection":".116378","jupiter_tisserand_invariant":"5.016","epoch_osculation":"2457600.5","eccentricity":".5803333391611055","semi_major_axis":"1.184228752138807","inclination":"36.82524250097755","ascending_node_longitude":"53.51697825560459","orbital_period":"470.708270066551","perihelion_distance":".496981326079504","perihelion_argument":"277.1283811111415","aphelion_distance":"1.87147617819811","perihelion_time":"2457581.566862642472","mean_anomaly":"14.48015656862439","mean_motion":".7648049182333284","equinox":"J2000"}},{"name":"395207 (2010 HQ80)","neo_reference_id":"2395207","url":"http://ssd.jpl.nasa.gov/sbdb.cgi?sstr=2395207","api_link":"https://api.nasa.gov/neo/rest/v1/neo/2395207?api_key=CGuQueDNtud5hWODnVj9El7kwfizD8Ql2XqEz3s5","closest_approach":"2016-05-22","potentially_hazardous":false,"absolute_magnitude_h":19.6,"estimated_diameter":0.5170619942,"kilometers_per_second":15.6531714572,"miss_distance":126.7205047607,"orbital_data":{"orbit_id":"54","orbit_determination_date":"2016-05-29 05:49:21","orbit_uncertainty":"0","minimum_orbit_intersection":".00831475","jupiter_tisserand_invariant":"4.165","epoch_osculation":"2457600.5","eccentricity":".4892898813569433","semi_major_axis":"1.568214757131035","inclination":"27.85089720486622","ascending_node_longitude":"218.5023722682234","orbital_period":"717.3097456030011","perihelion_distance":".8009031446721835","perihelion_argument":"66.29550506316487","aphelion_distance":"2.335526369589887","perihelion_time":"2457572.612281823720","mean_anomaly":"13.99615522443649","mean_motion":".5018752389839185","equinox":"J2000"}},{"name":"(2009 JR2)","neo_reference_id":"3459812","url":"http://ssd.jpl.nasa.gov/sbdb.cgi?sstr=3459812","api_link":"https://api.nasa.gov/neo/rest/v1/neo/3459812?api_key=CGuQueDNtud5hWODnVj9El7kwfizD8Ql2XqEz3s5","closest_approach":"2016-05-22","potentially_hazardous":false,"absolute_magnitude_h":22.7,"estimated_diameter":0.1240345333,"kilometers_per_second":10.9023220902,"miss_distance":50.307674408,"orbital_data":{"orbit_id":"15","orbit_determination_date":"2016-05-24 13:07:48","orbit_uncertainty":"0","minimum_orbit_intersection":".128879","jupiter_tisserand_invariant":"5.070","epoch_osculation":"2457600.5","eccentricity":".1790312365724779","semi_major_axis":"1.249999494690881","inclination":"19.73415875128505","ascending_node_longitude":"52.91030375054476","orbital_period":"510.4617241634361","perihelion_distance":"1.0262105394414","perihelion_argument":"255.2260869899286","aphelion_distance":"1.473788449940363","perihelion_time":"2457600.036598351576","mean_anomaly":".3268111702321901","mean_motion":".7052438664034635","equinox":"J2000"}},{"name":"(2012 KF25)","neo_reference_id":"3605006","url":"http://ssd.jpl.nasa.gov/sbdb.cgi?sstr=3605006","api_link":"https://api.nasa.gov/neo/rest/v1/neo/3605006?api_key=CGuQueDNtud5hWODnVj9El7kwfizD8Ql2XqEz3s5","closest_approach":"2016-05-22","potentially_hazardous":false,"absolute_magnitude_h":25.3,"estimated_diameter":0.0374578302,"kilometers_per_second":15.2078496828,"miss_distance":154.2313537598,"orbital_data":{"orbit_id":"6","orbit_determination_date":"2014-06-13 16:00:36","orbit_uncertainty":"6","minimum_orbit_intersection":".0190249","jupiter_tisserand_invariant":"6.100","epoch_osculation":"2457600.5","eccentricity":".04974629930449766","semi_major_axis":".9877488731378161","inclination":"16.94700033776801","ascending_node_longitude":"64.88007512112108","orbital_period":"358.5652856418068","perihelion_distance":".938612022057022","perihelion_argument":"336.4587151487793","aphelion_distance":"1.03688572421861","perihelion_time":"2457663.643186377439","mean_anomaly":"296.6041610659822","mean_motion":"1.004001263969615","equinox":"J2000"}},{"name":"(2014 YT9)","neo_reference_id":"3702966","url":"http://ssd.jpl.nasa.gov/sbdb.cgi?sstr=3702966","api_link":"https://api.nasa.gov/neo/rest/v1/neo/3702966?api_key=CGuQueDNtud5hWODnVj9El7kwfizD8Ql2XqEz3s5","closest_approach":"2016-05-22","potentially_hazardous":false,"absolute_magnitude_h":20.4,"estimated_diameter":0.3577195015,"kilometers_per_second":29.2412262728,"miss_distance":151.3163299561,"orbital_data":{"orbit_id":"17","orbit_determination_date":"2016-05-24 13:18:32","orbit_uncertainty":"2","minimum_orbit_intersection":".0636667","jupiter_tisserand_invariant":"4.388","epoch_osculation":"2457600.5","eccentricity":".5726612674610141","semi_major_axis":"1.472841138818215","inclination":"11.34905869575626","ascending_node_longitude":"241.5822359435427","orbital_period":"652.8783784300507","perihelion_distance":".6294020654938524","perihelion_argument":"111.8584323442496","aphelion_distance":"2.316280212142577","perihelion_time":"2457581.518010447432","mean_anomaly":"10.46675225385281","mean_motion":".5514043838695913","equinox":"J2000"}},{"name":"(2015 KB57)","neo_reference_id":"3719730","url":"http://ssd.jpl.nasa.gov/sbdb.cgi?sstr=3719730","api_link":"https://api.nasa.gov/neo/rest/v1/neo/3719730?api_key=CGuQueDNtud5hWODnVj9El7kwfizD8Ql2XqEz3s5","closest_approach":"2016-05-22","potentially_hazardous":false,"absolute_magnitude_h":22.3,"estimated_diameter":0.14912230804999999,"kilometers_per_second":17.3315204229,"miss_distance":174.2828521729,"orbital_data":{"orbit_id":"8","orbit_determination_date":"2016-02-25 16:41:51","orbit_uncertainty":"6","minimum_orbit_intersection":".141241","jupiter_tisserand_invariant":"6.096","epoch_osculation":"2457600.5","eccentricity":".6073580157197632","semi_major_axis":".9446455120436529","inclination":"29.68795589392003","ascending_node_longitude":"239.6411537484684","orbital_period":"335.3526366675815","perihelion_distance":".3709074882902402","perihelion_argument":"208.799003057847","aphelion_distance":"1.518383535797066","perihelion_time":"2457749.840126910188","mean_anomaly":"199.6838437833432","mean_motion":"1.073496852678246","equinox":"J2000"}},{"name":"(2016 KH)","neo_reference_id":"3753572","url":"http://ssd.jpl.nasa.gov/sbdb.cgi?sstr=3753572","api_link":"https://api.nasa.gov/neo/rest/v1/neo/3753572?api_key=CGuQueDNtud5hWODnVj9El7kwfizD8Ql2XqEz3s5","closest_approach":"2016-05-23","potentially_hazardous":false,"absolute_magnitude_h":24.377,"estimated_diameter":0.057298416049999995,"kilometers_per_second":13.1175134458,"miss_distance":12.8188295364,"orbital_data":{"orbit_id":"5","orbit_determination_date":"2016-05-31 06:18:34","orbit_uncertainty":"7","minimum_orbit_intersection":".0309273","jupiter_tisserand_invariant":"5.396","epoch_osculation":"2457600.5","eccentricity":".1268806306831932","semi_major_axis":"1.143347694724916","inclination":"24.7245854618538","ascending_node_longitude":"241.2758397169978","orbital_period":"446.5456957399614","perihelion_distance":".998279018128044","perihelion_argument":"52.62030025756836","aphelion_distance":"1.288416371321789","perihelion_time":"2457582.975892850247","mean_anomaly":"14.12773347519817","mean_motion":".8061884896313952","equinox":"J2000"}},{"name":"(2016 HE)","neo_reference_id":"3752097","url":"http://ssd.jpl.nasa.gov/sbdb.cgi?sstr=3752097","api_link":"https://api.nasa.gov/neo/rest/v1/neo/3752097?api_key=CGuQueDNtud5hWODnVj9El7kwfizD8Ql2XqEz3s5","closest_approach":"2016-05-20","potentially_hazardous":false,"absolute_magnitude_h":22.176,"estimated_diameter":0.15788563455,"kilometers_per_second":6.7491536576,"miss_distance":115.055015564,"orbital_data":{"orbit_id":"11","orbit_determination_date":"2016-05-24 13:29:24","orbit_uncertainty":"6","minimum_orbit_intersection":".29265","jupiter_tisserand_invariant":"3.606","epoch_osculation":"2457600.5","eccentricity":".3896921075505556","semi_major_axis":"2.113554327673892","inclination":"12.89329065804863","ascending_node_longitude":"43.17556744234408","orbital_period":"1122.324775798942","perihelion_distance":"1.289918887300055","perihelion_argument":"206.907281283985","aphelion_distance":"2.937189768047729","perihelion_time":"2457544.141376584150","mean_anomaly":"18.07774796316234","mean_motion":".3207627665028862","equinox":"J2000"}},{"name":"(2016 JF18)","neo_reference_id":"3753077","url":"http://ssd.jpl.nasa.gov/sbdb.cgi?sstr=3753077","api_link":"https://api.nasa.gov/neo/rest/v1/neo/3753077?api_key=CGuQueDNtud5hWODnVj9El7kwfizD8Ql2XqEz3s5","closest_approach":"2016-05-20","potentially_hazardous":false,"absolute_magnitude_h":23.819,"estimated_diameter":0.07408710365,"kilometers_per_second":16.83364239,"miss_distance":36.2896080017,"orbital_data":{"orbit_id":"6","orbit_determination_date":"2016-05-24 13:32:15","orbit_uncertainty":"8","minimum_orbit_intersection":".0515102","jupiter_tisserand_invariant":"5.657","epoch_osculation":"2457517.5","eccentricity":".5603982898390519","semi_major_axis":"1.054317968829144","inclination":"14.6639403381938","ascending_node_longitude":"227.6506030344724","orbital_period":"395.4174575121802","perihelion_distance":".463479982150709","perihelion_argument":"132.8613025495592","aphelion_distance":"1.64515595550758","perihelion_time":"2457593.134879340963","mean_anomaly":"291.1397207041423","mean_motion":".9104302128312348","equinox":"J2000"}}
]